[{"OBJECT_NAME":"STARLINK-31368","OBJECT_ID":"2024-031F","EPOCH":"2026-03-09T20:44:20.889888","MEAN_MOTION":15.30200677,"ECCENTRICITY":7.079e-5,"INCLINATION":53.1605,"RA_OF_ASC_NODE":295.6265,"ARG_OF_PERICENTER":129.3975,"MEAN_ANOMALY":230.7088,"EPHEMERIS_TYPE":0,"CLASSIFICATION_TYPE":"U","NORAD_CAT_ID":58970,"ELEMENT_SET_NO":999,"REV_AT_EPOCH":11656,"BSTAR":3.3253478e-5,"MEAN_MOTION_DOT":6.26e-6,"MEAN_MOTION_DDOT":0},{"OBJECT_NAME":"COSMOS 2535 DEB","OBJECT_ID":"2019-039M","EPOCH":"2026-03-08T03:25:35.903424","MEAN_MOTION":15.28322551,"ECCENTRICITY":0.0014917,"INCLINATION":97.5619,"RA_OF_ASC_NODE":139.2722,"ARG_OF_PERICENTER":329.0964,"MEAN_ANOMALY":30.9396,"EPHEMERIS_TYPE":0,"CLASSIFICATION_TYPE":"U","NORAD_CAT_ID":44641,"ELEMENT_SET_NO":999,"REV_AT_EPOCH":35167,"BSTAR":0.0011539757,"MEAN_MOTION_DOT":0.0003196,"MEAN_MOTION_DDOT":0}]
